[Satellite]
VERSION=1.1
NAME=STARLINK-5297
NICKNAME=STARLINK-5297
TLE1=1 54158U 22141B   22321.58334491 -.01202061  00000+0 -12209-1 0  9998
TLE2=2 54158  53.2178  42.3236 0001256  65.2184  22.2914 15.67198578  1302
STATUS=0
